[{"OBJECT_NAME":"NUSHSAT1","OBJECT_ID":"2025-052B","EPOCH":"2026-03-09T15:31:41.225952","MEAN_MOTION":15.31903202,"ECCENTRICITY":0.0005501,"INCLINATION":97.4095,"RA_OF_ASC_NODE":325.7239,"ARG_OF_PERICENTER":84.7512,"MEAN_ANOMALY":275.4357,"EPHEMERIS_TYPE":0,"CLASSIFICATION_TYPE":"U","NORAD_CAT_ID":63211,"ELEMENT_SET_NO":999,"REV_AT_EPOCH":5488,"BSTAR":0.00074857,"MEAN_MOTION_DOT":0.00023034,"MEAN_MOTION_DDOT":0},{"OBJECT_NAME":"STARLINK-34838","OBJECT_ID":"2025-189W","EPOCH":"2026-03-09T16:49:45.752736","MEAN_MOTION":15.30201971,"ECCENTRICITY":0.00010308,"INCLINATION":53.1606,"RA_OF_ASC_NODE":207.0316,"ARG_OF_PERICENTER":73.3677,"MEAN_ANOMALY":286.7437,"EPHEMERIS_TYPE":0,"CLASSIFICATION_TYPE":"U","NORAD_CAT_ID":65343,"ELEMENT_SET_NO":999,"REV_AT_EPOCH":3111,"BSTAR":0.00068696695,"MEAN_MOTION_DOT":0.00020043,"MEAN_MOTION_DDOT":0}]
